[{"OBJECT_NAME":"OBJECT C","OBJECT_ID":"2024-085C","EPOCH":"2026-03-09T22:49:58.289376","MEAN_MOTION":15.31893958,"ECCENTRICITY":0.00283931,"INCLINATION":97.3357,"RA_OF_ASC_NODE":145.6975,"ARG_OF_PERICENTER":37.3887,"MEAN_ANOMALY":322.9323,"EPHEMERIS_TYPE":0,"CLASSIFICATION_TYPE":"U","NORAD_CAT_ID":59679,"ELEMENT_SET_NO":999,"REV_AT_EPOCH":10244,"BSTAR":0.00039740634,"MEAN_MOTION_DOT":0.0001232,"MEAN_MOTION_DDOT":0},{"OBJECT_NAME":"STARLINK-32237","OBJECT_ID":"2024-144U","EPOCH":"2026-03-09T15:04:55.252128","MEAN_MOTION":15.30189107,"ECCENTRICITY":8.68e-5,"INCLINATION":53.1588,"RA_OF_ASC_NODE":217.1357,"ARG_OF_PERICENTER":58.8234,"MEAN_ANOMALY":301.2851,"EPHEMERIS_TYPE":0,"CLASSIFICATION_TYPE":"U","NORAD_CAT_ID":60443,"ELEMENT_SET_NO":999,"REV_AT_EPOCH":8930,"BSTAR":6.3376e-5,"MEAN_MOTION_DOT":1.518e-5,"MEAN_MOTION_DDOT":0}]
